GLOBALSTAR M063         
1 26081U 00008A   25299.97428955 -.00000077  00000+0  87331-4 0  9991
2 26081  51.9915 124.4890 0004265 193.4043 324.2508 11.86176778173218
GLOBALSTAR M062         
1 26082U 00008B   25300.13364432 -.00000095  00000+0  25899-4 0  9993
2 26082  51.9851  67.7614 0007372  40.5938 130.2668 12.43475131513037
GLOBALSTAR M060         
1 26083U 00008C   25300.08319596 -.00000081  00000+0  10035-3 0  9999
2 26083  52.0039  46.5783 0003438  46.0723 125.2765 12.17668853168430
GLOBALSTAR M064         
1 26084U 00008D   25300.17956994 -.00000087  00000+0 -51319-4 0  9997
2 26084  52.0026 221.2221 0001529 343.1774  16.9007 11.88537731182799
GLOBALSTAR M065         
1 31571U 07020A   25300.02508425 -.00000026  00000+0  43442-3 0  9990
2 31571  51.9882 184.9924 0009114 238.9154 229.5205 12.62011718850058
GLOBALSTAR M069         
1 31573U 07020C   25300.21573696 -.00000105  00000+0 -11741-3 0  9991
2 31573  52.0024 191.5238 0002581  41.3699 125.1164 12.23462298850283
GLOBALSTAR M072         
1 31574U 07020D   25300.19654781 -.00000063  00000+0  28891-3 0  9990
2 31574  51.9964   0.5292 0001143 201.5531 191.8112 11.91652532847209
GLOBALSTAR M071         
1 31576U 07020F   25300.15921531 -.00000120  00000+0 -28886-3 0  9997
2 31576  52.0057 221.0225 0001518  35.0921 105.1426 12.18260447511025
